start=new Date('2022-12-31T00:00:00.000Z').valueOf();
sats=[{"OBJECT_TYPE":"PAYLOAD","MEAN_MOTION_DOT":"0.00006429","CENTER_NAME":"EARTH","EPHEMERIS_TYPE":"0","FILE":"3727173","ARG_OF_PERICENTER":"28.3973","PERIAPSIS":"537.833","DECAY_DATE":null,"RA_OF_ASC_NODE":"238.3607","OBJECT_NAME":"STARLINK-3863","BSTAR":"0.00042162000000","REF_FRAME":"TEME","APOAPSIS":"541.625","PERIOD":"95.437","MEAN_MOTION_DDOT":"0.0000000000000","NORAD_CAT_ID":"52465","LAUNCH_DATE":"2022-05-06","TIME_SYSTEM":"UTC","MEAN_MOTION":"15.08845417","RCS_SIZE":"LARGE","EPOCH":"2022-12-30T20:01:20.277408","CLASSIFICATION_TYPE":"U","INCLINATION":"53.2167","TLE_LINE2":"2 52465  53.2167 238.3607 0002741  28.3973 331.7168 15.08845417 36699","COUNTRY_CODE":"US","SITE":"AFETR","TLE_LINE1":"1 52465U 22049Q   22364.83426247  .00006429  00000-0  42162-3 0  9991","MEAN_ELEMENT_THEORY":"SGP4","SEMIMAJOR_AXIS":"6917.864","ECCENTRICITY":"0.00027410","OBJECT_ID":"2022-049Q","GP_ID":"221796760","MEAN_ANOMALY":"331.7168","REV_AT_EPOCH":"3669","ELEMENT_SET_NO":"999"},{"MEAN_MOTION":"15.08849014","TIME_SYSTEM":"UTC","CLASSIFICATION_TYPE":"U","EPOCH":"2022-12-30T19:54:43.098336","RCS_SIZE":"LARGE","TLE_LINE2":"2 52466  53.2167 248.3801 0003233  28.6592 331.4578 15.08849014 36558","INCLINATION":"53.2167","SITE":"AFETR","TLE_LINE1":"1 52466U 22049R   22364.82966549  .00010686  00000-0  68829-3 0  9993","COUNTRY_CODE":"US","ECCENTRICITY":"0.00032330","SEMIMAJOR_AXIS":"6917.853","MEAN_ELEMENT_THEORY":"SGP4","GP_ID":"221796747","OBJECT_ID":"2022-049R","MEAN_ANOMALY":"331.4578","REV_AT_EPOCH":"3655","ELEMENT_SET_NO":"999","CENTER_NAME":"EARTH","MEAN_MOTION_DOT":"0.00010686","OBJECT_TYPE":"PAYLOAD","EPHEMERIS_TYPE":"0","DECAY_DATE":null,"PERIAPSIS":"537.481","ARG_OF_PERICENTER":"28.6592","FILE":"3727164","BSTAR":"0.00068829000000","OBJECT_NAME":"STARLINK-3840","RA_OF_ASC_NODE":"248.3801","APOAPSIS":"541.954","REF_FRAME":"TEME","MEAN_MOTION_DDOT":"0.0000000000000","PERIOD":"95.437","NORAD_CAT_ID":"52466","LAUNCH_DATE":"2022-05-06"},{"REV_AT_EPOCH":"3628","MEAN_ANOMALY":"290.2648","ELEMENT_SET_NO":"999","MEAN_ELEMENT_THEORY":"SGP4","ECCENTRICITY":"0.00017170","SEMIMAJOR_AXIS":"6917.877","GP_ID":"221788581","OBJECT_ID":"2022-049S","TLE_LINE2":"2 52467  53.2180 251.6393 0001717  69.8528 290.2648 15.08841064 36285","INCLINATION":"53.2180","COUNTRY_CODE":"US","TLE_LINE1":"1 52467U 22049S   22364.10468361 -.00002118  00000-0 -11498-3 0  9997","SITE":"AFETR","TIME_SYSTEM":"UTC","MEAN_MOTION":"15.08841064","EPOCH":"2022-12-30T02:30:44.663904","RCS_SIZE":"LARGE","CLASSIFICATION_TYPE":"U","NORAD_CAT_ID":"52467","LAUNCH_DATE":"2022-05-06","REF_FRAME":"TEME","APOAPSIS":"540.930","PERIOD":"95.437","MEAN_MOTION_DDOT":"0.0000000000000","ARG_OF_PERICENTER":"69.8528","PERIAPSIS":"538.554","FILE":"3726810","DECAY_DATE":null,"RA_OF_ASC_NODE":"251.6393","BSTAR":"-0.00011498000000","OBJECT_NAME":"STARLINK-3873","MEAN_MOTION_DOT":"-0.00002118","OBJECT_TYPE":"PAYLOAD","CENTER_NAME":"EARTH","EPHEMERIS_TYPE":"0"},{"PERIOD":"95.438","MEAN_MOTION_DDOT":"0.0000000000000","REF_FRAME":"TEME","APOAPSIS":"541.413","LAUNCH_DATE":"2022-05-06","NORAD_CAT_ID":"52468","EPHEMERIS_TYPE":"0","MEAN_MOTION_DOT":"-0.00000853","OBJECT_TYPE":"PAYLOAD","CENTER_NAME":"EARTH","RA_OF_ASC_NODE":"250.2205","BSTAR":"-0.00003545100000","OBJECT_NAME":"STARLINK-3864","ARG_OF_PERICENTER":"35.4901","PERIAPSIS":"538.089","FILE":"3726810","DECAY_DATE":null,"GP_ID":"221788831","OBJECT_ID":"2022-049T","MEAN_ELEMENT_THEORY":"SGP4","ECCENTRICITY":"0.00024020","SEMIMAJOR_AXIS":"6917.886","ELEMENT_SET_NO":"999","REV_AT_EPOCH":"3633","MEAN_ANOMALY":"324.6251","EPOCH":"2022-12-30T10:06:30.468672","RCS_SIZE":"LARGE","CLASSIFICATION_TYPE":"U","TIME_SYSTEM":"UTC","MEAN_MOTION":"15.08838152","COUNTRY_CODE":"US","SITE":"AFETR","TLE_LINE1":"1 52468U 22049T   22364.42118598 -.00000853  00000-0 -35451-4 0  9997","TLE_LINE2":"2 52468  53.2181 250.2205 0002402  35.4901 324.6251 15.08838152 36332","INCLINATION":"53.2181"},{"ECCENTRICITY":"0.00019750","SEMIMAJOR_AXIS":"6917.891","MEAN_ELEMENT_THEORY":"SGP4","GP_ID":"221788080","OBJECT_ID":"2022-049U","REV_AT_EPOCH":"3633","MEAN_ANOMALY":"316.4833","ELEMENT_SET_NO":"999","MEAN_MOTION":"15.08836627","TIME_SYSTEM":"UTC","CLASSIFICATION_TYPE":"U","EPOCH":"2022-12-30T10:17:06.212832","RCS_SIZE":"LARGE","TLE_LINE2":"2 52469  53.2170 250.1850 0001975  43.6315 316.4833 15.08836627 36330","INCLINATION":"53.2170","TLE_LINE1":"1 52469U 22049U   22364.42854413 -.00001622  00000-0 -83838-4 0  9998","SITE":"AFETR","COUNTRY_CODE":"US","APOAPSIS":"541.122","REF_FRAME":"TEME","MEAN_MOTION_DDOT":"0.0000000000000","PERIOD":"95.438","NORAD_CAT_ID":"52469","LAUNCH_DATE":"2022-05-06","CENTER_NAME":"EARTH","MEAN_MOTION_DOT":"-0.00001622","OBJECT_TYPE":"PAYLOAD","EPHEMERIS_TYPE":"0","DECAY_DATE":null,"PERIAPSIS":"538.389","ARG_OF_PERICENTER":"43.6315","FILE":"3726810","BSTAR":"-0.00008383800000","OBJECT_NAME":"STARLINK-3828","RA_OF_ASC_NODE":"250.1850"},{"INCLINATION":"53.2162","TLE_LINE2":"2 52470  53.2162 249.0663 0002249  37.3683 322.7465 15.08838272 36536","TLE_LINE1":"1 52470U 22049V   22364.67877681  .00003794  00000-0  25636-3 0  9990","SITE":"AFETR","COUNTRY_CODE":"US","MEAN_MOTION":"15.08838272","TIME_SYSTEM":"UTC","CLASSIFICATION_TYPE":"U","RCS_SIZE":"LARGE","EPOCH":"2022-12-30T16:17:26.316384","REV_AT_EPOCH":"3653","MEAN_ANOMALY":"322.7465","ELEMENT_SET_NO":"999","SEMIMAJOR_AXIS":"6917.886","ECCENTRICITY":"0.00022490","MEAN_ELEMENT_THEORY":"SGP4","OBJECT_ID":"2022-049V","GP_ID":"221797040","DECAY_DATE":null,"FILE":"3727164","ARG_OF_PERICENTER":"37.3683","PERIAPSIS":"538.195","OBJECT_NAME":"STARLINK-3859","BSTAR":"0.00025636000000","RA_OF_ASC_NODE":"249.0663","CENTER_NAME":"EARTH","OBJECT_TYPE":"PAYLOAD","MEAN_MOTION_DOT":"0.00003794","EPHEMERIS_TYPE":"0","NORAD_CAT_ID":"52470","LAUNCH_DATE":"2022-05-06","APOAPSIS":"541.307","REF_FRAME":"TEME","MEAN_MOTION_DDOT":"0.0000000000000","PERIOD":"95.438"},{"COUNTRY_CODE":"US","SITE":"AFETR","TLE_LINE1":"1 52471U 22049W   22364.42487234  .00027086  00000-0  17131-2 0  9995","TLE_LINE2":"2 52471  53.2152 250.1969 0002595  42.2336 317.8855 15.08844954 36332","INCLINATION":"53.2152","EPOCH":"2022-12-30T10:11:48.970176","RCS_SIZE":"LARGE","CLASSIFICATION_TYPE":"U","TIME_SYSTEM":"UTC","MEAN_MOTION":"15.08844954","ELEMENT_SET_NO":"999","REV_AT_EPOCH":"3633","MEAN_ANOMALY":"317.8855","GP_ID":"221789081","OBJECT_ID":"2022-049W","MEAN_ELEMENT_THEORY":"SGP4","ECCENTRICITY":"0.00025950","SEMIMAJOR_AXIS":"6917.865","RA_OF_ASC_NODE":"250.1969","BSTAR":"0.00171310000000","OBJECT_NAME":"STARLINK-3862","PERIAPSIS":"537.935","ARG_OF_PERICENTER":"42.2336","FILE":"3726810","DECAY_DATE":null,"EPHEMERIS_TYPE":"0","MEAN_MOTION_DOT":"0.00027086","OBJECT_TYPE":"PAYLOAD","CENTER_NAME":"EARTH","LAUNCH_DATE":"2022-05-06","NORAD_CAT_ID":"52471","PERIOD":"95.437","MEAN_MOTION_DDOT":"0.0000000000000","REF_FRAME":"TEME","APOAPSIS":"541.525"},{"CENTER_NAME":"EARTH","MEAN_MOTION_DOT":"0.00006376","OBJECT_TYPE":"PAYLOAD","EPHEMERIS_TYPE":"0","DECAY_DATE":null,"ARG_OF_PERICENTER":"31.8811","PERIAPSIS":"538.242","FILE":"3727164","BSTAR":"0.00041850000000","OBJECT_NAME":"STARLINK-3881","RA_OF_ASC_NODE":"249.0819","APOAPSIS":"541.338","REF_FRAME":"TEME","MEAN_MOTION_DDOT":"0.0000000000000","PERIOD":"95.438","NORAD_CAT_ID":"52472","LAUNCH_DATE":"2022-05-06","MEAN_MOTION":"15.08825439","TIME_SYSTEM":"UTC","CLASSIFICATION_TYPE":"U","EPOCH":"2022-12-30T16:12:08.633952","RCS_SIZE":"LARGE","TLE_LINE2":"2 52472  53.2168 249.0819 0002238  31.8811 328.2316 15.08825439 36534","INCLINATION":"53.2168","TLE_LINE1":"1 52472U 22049X   22364.67509993  .00006376  00000-0  41850-3 0  9995","SITE":"AFETR","COUNTRY_CODE":"US","ECCENTRICITY":"0.00022380","SEMIMAJOR_AXIS":"6917.925","MEAN_ELEMENT_THEORY":"SGP4","GP_ID":"221797039","OBJECT_ID":"2022-049X","MEAN_ANOMALY":"328.2316","REV_AT_EPOCH":"3653","ELEMENT_SET_NO":"999"},{"MEAN_MOTION_DDOT":"0.0000000000000","PERIOD":"95.438","APOAPSIS":"541.541","REF_FRAME":"TEME","LAUNCH_DATE":"2022-05-06","NORAD_CAT_ID":"52473","EPHEMERIS_TYPE":"0","CENTER_NAME":"EARTH","OBJECT_TYPE":"PAYLOAD","MEAN_MOTION_DOT":"-0.00003581","OBJECT_NAME":"STARLINK-3879","BSTAR":"-0.00020695000000","RA_OF_ASC_NODE":"250.2417","DECAY_DATE":null,"FILE":"3726810","ARG_OF_PERICENTER":"28.5486","PERIAPSIS":"537.946","OBJECT_ID":"2022-049Y","GP_ID":"221787580","SEMIMAJOR_AXIS":"6917.879","ECCENTRICITY":"0.00025980","MEAN_ELEMENT_THEORY":"SGP4","ELEMENT_SET_NO":"999","MEAN_ANOMALY":"331.5648","REV_AT_EPOCH":"3633","CLASSIFICATION_TYPE":"U","RCS_SIZE":"LARGE","EPOCH":"2022-12-30T10:01:11.275968","MEAN_MOTION":"15.08840562","TIME_SYSTEM":"UTC","TLE_LINE1":"1 52473U 22049Y   22364.41749162 -.00003581  00000-0 -20695-3 0  9993","SITE":"AFETR","COUNTRY_CODE":"US","INCLINATION":"53.2165","TLE_LINE2":"2 52473  53.2165 250.2417 0002598  28.5486 331.5648 15.08840562 36337"},{"GP_ID":"221797041","OBJECT_ID":"2022-049Z","MEAN_ELEMENT_THEORY":"SGP4","ECCENTRICITY":"0.00026770","SEMIMAJOR_AXIS":"6917.856","ELEMENT_SET_NO":"999","REV_AT_EPOCH":"3669","MEAN_ANOMALY":"332.9953","EPOCH":"2022-12-30T19:50:43.944864","RCS_SIZE":"LARGE","CLASSIFICATION_TYPE":"U","TIME_SYSTEM":"UTC","MEAN_MOTION":"15.08847820","COUNTRY_CODE":"US","SITE":"AFETR","TLE_LINE1":"1 52474U 22049Z   22364.82689751  .00000346  00000-0  39826-4 0  9997","TLE_LINE2":"2 52474  53.2167 238.3908 0002677  27.1179 332.9953 15.08847820 36691","INCLINATION":"53.2167","PERIOD":"95.437","MEAN_MOTION_DDOT":"0.0000000000000","REF_FRAME":"TEME","APOAPSIS":"541.573","LAUNCH_DATE":"2022-05-06","NORAD_CAT_ID":"52474","EPHEMERIS_TYPE":"0","MEAN_MOTION_DOT":"0.00000346","OBJECT_TYPE":"PAYLOAD","CENTER_NAME":"EARTH","RA_OF_ASC_NODE":"238.3908","BSTAR":"0.00003982600000","OBJECT_NAME":"STARLINK-3855","PERIAPSIS":"537.870","ARG_OF_PERICENTER":"27.1179","FILE":"3727164","DECAY_DATE":null}];
